SAUDISAT 1C (SO-50)     
1 27607U 02058C   26165.32313440  .00000923  00000+0  12619-3 0  9992
2 27607  64.5509 137.8468 0075333 263.0043  96.2490 14.83041320264030
SAUDISAT 2              
1 28371U 04025F   26165.55614666  .00000226  00000+0  61487-4 0  9990
2 28371  98.5508 165.4700 0023690 306.7156  53.1865 14.56682577165369
SAUDISAT 3              
1 31118U 07012B   26165.60660124  .00000214  00000+0  42776-4 0  9995
2 31118  98.1455 116.0055 0013503 232.6414 127.3564 14.71424247 27362
PISAT                   
1 41784U 16059B   26165.55561438  .00000757  00000+0  13645-3 0  9992
2 41784  97.8179 166.1215 0028164 211.4020 148.5506 14.68979430519353
FLYING LAPTOP           
1 42831U 17042G   26165.58586149  .00003726  00000+0  29426-3 0  9991
2 42831  97.4669 321.2187 0019526 130.2806 230.0129 15.01131863486068
SALSAT                  
1 46495U 20068K   26165.52910376  .00006973  00000+0  24454-3 0  9993
2 46495  97.8843 168.4319 0008235 319.4661  40.5964 15.29765944314951
