OBJECT_NAME,OBJECT_ID,EPOCH,MEAN_MOTION,ECCENTRICITY,INCLINATION,RA_OF_ASC_NODE,ARG_OF_PERICENTER,MEAN_ANOMALY,EPHEMERIS_TYPE,CLASSIFICATION_TYPE,NORAD_CAT_ID,ELEMENT_SET_NO,REV_AT_EPOCH,BSTAR,MEAN_MOTION_DOT,MEAN_MOTION_DDOT
SAUDISAT 1C (SO-50),2002-058C,2026-06-14T07:45:18.812160,14.83041320,.00753336,64.5509,137.8468,263.0043,96.2490,0,U,27607,999,26403,.12618747E-3,.923E-5,0
SAUDISAT 2,2004-025F,2026-06-14T13:20:51.071424,14.56682577,.00236901,98.5508,165.4700,306.7156,53.1865,0,U,28371,999,16536,.61487316E-4,.226E-5,0
SAUDISAT 3,2007-012B,2026-06-14T14:33:30.347136,14.71424247,.00135038,98.1455,116.0055,232.6414,127.3564,0,U,31118,999,2736,.42775936E-4,.214E-5,0
PISAT,2016-059B,2026-06-14T13:20:05.082432,14.68979430,.00281648,97.8179,166.1215,211.4020,148.5506,0,U,41784,999,51935,.13644889E-3,.757E-5,0
FLYING LAPTOP,2017-042G,2026-06-14T14:03:38.432736,15.01131863,.00195264,97.4669,321.2187,130.2806,230.0129,0,U,42831,999,48606,.2942616E-3,.3726E-4,0
SALSAT,2020-068K,2026-06-14T12:41:54.564864,15.29765944,.0008235,97.8843,168.4319,319.4661,40.5964,0,U,46495,999,31495,.24454211E-3,.6973E-4,0
